ONEWEB-0597             
1 54663U 22166X   26169.72589290  .00000039  00000+0  62234-4 0  9999
2 54663  87.9254 243.6812 0001961  95.1970 264.9388 13.21827384171744
ONEWEB-0600             
1 54664U 22166Y   26169.93447259 -.00000020  00000+0 -79299-4 0  9992
2 54664  87.9252 243.6312 0001842  96.8600 263.2744 13.21824112171748
ONEWEB-0601             
1 54665U 22166Z   26169.92606484  .00000033  00000+0  49396-4 0  9996
2 54665  87.9249 243.6491 0002053  91.8706 268.2663 13.21826031171938
ONEWEB-0602             
1 54666U 22166AA  26169.74018677 -.00000138  00000+0 -36476-3 0  9990
2 54666  87.9253 243.6920 0001751  96.0388 264.0945 13.21826439171757
ONEWEB-0603             
1 54667U 22166AB  26169.89747481  .00000016  00000+0  64723-5 0  9990
2 54667  87.9261 243.6179 0001966  95.8933 264.2426 13.21827207171709
ONEWEB-0604             
1 54668U 22166AC  26169.73429200 -.00000151  00000+0 -39592-3 0  9996
2 54668  87.9263 243.6659 0002020 101.4362 258.6999 13.21827484171649
ONEWEB-0605             
1 54669U 22166AD  26169.72758005 -.00000052  00000+0 -15800-3 0  9990
2 54669  87.9253 243.6805 0002509  88.3830 271.7591 13.21827064171713
ONEWEB-0606             
1 54670U 22166AE  26169.90083695  .00000038  00000+0  60284-4 0  9997
2 54670  87.9251 243.6586 0002026 103.7377 256.3983 13.21827171171792
ONEWEB-0607             
1 54671U 22166AF  26169.94288279  .00000108  00000+0  23061-3 0  9996
2 54671  87.9261 243.6211 0001942  95.2807 264.8549 13.21824539171773
ONEWEB-0608             
1 54672U 22166AG  26169.72251295  .00000051  00000+0  91447-4 0  9992
2 54672  87.9265 243.6617 0002243  85.2755 274.8635 13.21827726171750
ONEWEB-0610             
1 54673U 22166AH  26169.92942548  .00000095  00000+0  19803-3 0  9996
2 54673  87.9253 243.6347 0002018  81.1175 279.0188 13.21824921171685
ONEWEB-0611             
1 54674U 22166AJ  26169.92268148 -.00000191  00000+0 -49459-3 0  9993
2 54674  87.9253 243.6322 0002065 102.4915 257.6450 13.21825445171675
ONEWEB-0612             
1 54675U 22166AK  26169.93616192  .00000057  00000+0  10684-3 0  9998
2 54675  87.9266 243.6251 0002046  94.2624 265.8744 13.21825544171661
ONEWEB-0615             
1 54676U 22166AL  26169.91597799  .00000089  00000+0  18511-3 0  9990
2 54676  87.9253 243.6434 0001894 106.1588 253.9755 13.21826764171679
ONEWEB-0655             
1 54677U 22166AM  26169.74103355 -.00000106  00000+0 -28779-3 0  9992
2 54677  87.9255 243.6795 0001789  94.9967 265.1371 13.21826678171640
ONEWEB-0659             
1 54678U 22166AN  26169.90924056  .00000042  00000+0  71089-4 0  9990
2 54678  87.9251 243.6460 0002107 100.6747 259.4624 13.21828127171752
ONEWEB-0685             
1 54679U 22166AP  26169.90930548 -.00000010  00000+0 -56860-4 0  9991
2 54679  87.9247 243.6381 0002014  87.9937 272.1427 13.21847319171640
ONEWEB-0712             
1 54680U 22166AQ  26169.88394785 -.00000083  00000+0 -25019-3 0  9998
2 54680  87.9098 228.4379 0001593  93.5853 266.5460 13.16594021172283
ONEWEB-0714             
1 54681U 22166AR  26169.91428384  .00000136  00000+0  29752-3 0  9991
2 54681  87.9251 243.6345 0001717 100.4845 259.6483 13.21824428171767
ONEWEB-0532             
1 55140U 23004A   26169.93099225 -.00000014  00000+0 -69543-4 0  9994
2 55140  87.9132   5.5177 0002224  86.8710 273.2676 13.17821180167810
ONEWEB-0533             
1 55141U 23004B   26169.90590662 -.00000309  00000+0 -89433-3 0  9999
2 55141  87.8947 350.3282 0001780  86.0148 274.1184 13.12443370168287
ONEWEB-0541             
1 55142U 23004C   26169.86081749 -.00000301  00000+0 -88369-3 0  9995
2 55142  87.8894  20.7250 0001929  90.2615 269.8734 13.11419428166166
ONEWEB-0543             
1 55143U 23004D   26169.90903240  .00000022  00000+0  21924-4 0  9993
2 55143  87.9164 335.1266 0001623  93.0277 267.1041 13.18685464169925
ONEWEB-0544             
1 55144U 23004E   26169.90228937 -.00000002  00000+0 -36930-4 0  9990
2 55144  87.9162 335.1278 0001756  99.3415 260.7916 13.18685237169925
ONEWEB-0560             
1 55145U 23004F   26169.89554131  .00000036  00000+0  59570-4 0  9997
2 55145  87.9162 335.1184 0001662 100.9411 259.1908 13.18686851169930
ONEWEB-0565             
1 55146U 23004G   26169.96467913  .00000038  00000+0  62517-4 0  9994
2 55146  87.9153 335.1325 0002109 103.9140 256.2227 13.18685456169939
ONEWEB-0567             
1 55147U 23004H   26169.88206070  .00000004  00000+0 -22469-4 0  9997
2 55147  87.9161 335.1333 0001954 104.2697 255.8653 13.18685278169925
ONEWEB-0569             
1 55148U 23004J   26169.91256120 -.00000269  00000+0 -77175-3 0  9990
2 55148  87.8963 319.8759 0001743 126.6740 233.4549 13.13470078170405
ONEWEB-0570             
1 55149U 23004K   26169.72186688 -.00000016  00000+0 -72942-4 0  9999
2 55149  87.9161 335.1630 0002252  93.8480 266.2910 13.18685281169894
ONEWEB-0571             
1 55150U 23004L   26169.71512141  .00000077  00000+0  16158-3 0  9998
2 55150  87.9163 335.1640 0002361 125.1934 234.9419 13.18688418169906
