OBJECT_NAME,OBJECT_ID,EPOCH,MEAN_MOTION,ECCENTRICITY,INCLINATION,RA_OF_ASC_NODE,ARG_OF_PERICENTER,MEAN_ANOMALY,EPHEMERIS_TYPE,CLASSIFICATION_TYPE,NORAD_CAT_ID,ELEMENT_SET_NO,REV_AT_EPOCH,BSTAR,MEAN_MOTION_DOT,MEAN_MOTION_DDOT
ONEWEB-0597,2022-166X,2026-06-18T17:25:17.146560,13.21827384,.00019614,87.9254,243.6812,95.1970,264.9388,0,U,54663,999,17174,.62234311E-4,.39E-6,0
ONEWEB-0600,2022-166Y,2026-06-18T22:25:38.431776,13.21824112,.0001842,87.9252,243.6312,96.8600,263.2744,0,U,54664,999,17174,-.79298656E-4,-.2E-6,0
ONEWEB-0601,2022-166Z,2026-06-18T22:13:32.002176,13.21826031,.00020534,87.9249,243.6491,91.8706,268.2663,0,U,54665,999,17193,.49396347E-4,.33E-6,0
ONEWEB-0602,2022-166AA,2026-06-18T17:45:52.136928,13.21826439,.00017516,87.9253,243.6920,96.0388,264.0945,0,U,54666,999,17175,-.36476458E-3,-.138E-5,0
ONEWEB-0603,2022-166AB,2026-06-18T21:32:21.823584,13.21827207,.00019664,87.9261,243.6179,95.8933,264.2426,0,U,54667,999,17170,.6472332E-5,.16E-6,0
ONEWEB-0604,2022-166AC,2026-06-18T17:37:22.828800,13.21827484,.00020202,87.9263,243.6659,101.4362,258.6999,0,U,54668,999,17164,-.3959185E-3,-.151E-5,0
ONEWEB-0605,2022-166AD,2026-06-18T17:27:42.916320,13.21827064,.00025098,87.9253,243.6805,88.3830,271.7591,0,U,54669,999,17171,-.15800369E-3,-.52E-6,0
ONEWEB-0606,2022-166AE,2026-06-18T21:37:12.312480,13.21827171,.00020269,87.9251,243.6586,103.7377,256.3983,0,U,54670,999,17179,.6028397E-4,.38E-6,0
ONEWEB-0607,2022-166AF,2026-06-18T22:37:45.073056,13.21824539,.00019427,87.9261,243.6211,95.2807,264.8549,0,U,54671,999,17177,.2306097E-3,.108E-5,0
ONEWEB-0608,2022-166AG,2026-06-18T17:20:25.118880,13.21827726,.00022436,87.9265,243.6617,85.2755,274.8635,0,U,54672,999,17175,.91447306E-4,.51E-6,0
ONEWEB-0610,2022-166AH,2026-06-18T22:18:22.361472,13.21824921,.00020187,87.9253,243.6347,81.1175,279.0188,0,U,54673,999,17168,.19803496E-3,.95E-6,0
ONEWEB-0611,2022-166AJ,2026-06-18T22:08:39.679872,13.21825445,.00020655,87.9253,243.6322,102.4915,257.6450,0,U,54674,999,17167,-.49459324E-3,-.191E-5,0
ONEWEB-0612,2022-166AK,2026-06-18T22:28:04.389888,13.21825544,.00020462,87.9266,243.6251,94.2624,265.8744,0,U,54675,999,17166,.10683978E-3,.57E-6,0
ONEWEB-0615,2022-166AL,2026-06-18T21:59:00.498336,13.21826764,.00018949,87.9253,243.6434,106.1588,253.9755,0,U,54676,999,17167,.18510576E-3,.89E-6,0
ONEWEB-0655,2022-166AM,2026-06-18T17:47:05.298720,13.21826678,.00017899,87.9255,243.6795,94.9967,265.1371,0,U,54677,999,17164,-.28778531E-3,-.106E-5,0
ONEWEB-0659,2022-166AN,2026-06-18T21:49:18.384384,13.21828127,.00021074,87.9251,243.6460,100.6747,259.4624,0,U,54678,999,17175,.71088903E-4,.42E-6,0
ONEWEB-0685,2022-166AP,2026-06-18T21:49:23.993472,13.21847319,.00020143,87.9247,243.6381,87.9937,272.1427,0,U,54679,999,17164,-.56859661E-4,-.1E-6,0
ONEWEB-0712,2022-166AQ,2026-06-18T21:12:53.094240,13.16594021,.00015934,87.9098,228.4379,93.5853,266.5460,0,U,54680,999,17228,-.25018707E-3,-.83E-6,0
ONEWEB-0714,2022-166AR,2026-06-18T21:56:34.123776,13.21824428,.00017178,87.9251,243.6345,100.4845,259.6483,0,U,54681,999,17176,.29752271E-3,.136E-5,0
ONEWEB-0532,2023-004A,2026-06-18T22:20:37.730400,13.17821180,.00022247,87.9132,5.5177,86.8710,273.2676,0,U,55140,999,16781,-.69542828E-4,-.14E-6,0
ONEWEB-0533,2023-004B,2026-06-18T21:44:30.331968,13.12443370,.00017809,87.8947,350.3282,86.0148,274.1184,0,U,55141,999,16828,-.89432776E-3,-.309E-5,0
ONEWEB-0541,2023-004C,2026-06-18T20:39:34.631136,13.11419428,.00019291,87.8894,20.7250,90.2615,269.8734,0,U,55142,999,16616,-.88368643E-3,-.301E-5,0
ONEWEB-0543,2023-004D,2026-06-18T21:49:00.399360,13.18685464,.00016232,87.9164,335.1266,93.0277,267.1041,0,U,55143,999,16992,.21924E-4,.22E-6,0
ONEWEB-0544,2023-004E,2026-06-18T21:39:17.801568,13.18685237,.00017565,87.9162,335.1278,99.3415,260.7916,0,U,55144,999,16992,-.36930445E-4,-.2E-7,0
ONEWEB-0560,2023-004F,2026-06-18T21:29:34.769184,13.18686851,.00016628,87.9162,335.1184,100.9411,259.1908,0,U,55145,999,16993,.59570475E-4,.36E-6,0
ONEWEB-0565,2023-004G,2026-06-18T23:09:08.276832,13.18685456,.00021096,87.9153,335.1325,103.9140,256.2227,0,U,55146,999,16993,.62516761E-4,.38E-6,0
ONEWEB-0567,2023-004H,2026-06-18T21:10:10.044480,13.18685278,.00019546,87.9161,335.1333,104.2697,255.8653,0,U,55147,999,16992,-.2246885E-4,.4E-7,0
ONEWEB-0569,2023-004J,2026-06-18T21:54:05.287680,13.13470078,.00017434,87.8963,319.8759,126.6740,233.4549,0,U,55148,999,17040,-.77174577E-3,-.269E-5,0
ONEWEB-0570,2023-004K,2026-06-18T17:19:29.298432,13.18685281,.0002252,87.9161,335.1630,93.8480,266.2910,0,U,55149,999,16989,-.72942191E-4,-.16E-6,0
ONEWEB-0571,2023-004L,2026-06-18T17:09:46.489824,13.18688418,.00023619,87.9163,335.1640,125.1934,234.9419,0,U,55150,999,16990,.16158328E-3,.77E-6,0
